<?xml version="1.0" encoding="UTF-8"?>
<kml xmlns="http://www.opengis.net/kml/2.2">
  <Document>
    <name>33-Waypoint End-to-End Flight Path</name>
    <description>3D flight path featuring explicit start/goal connectors and building clearances.</description>
    
    <Style id="dronePathStyle">
      <LineStyle>
        <color>ff0000ff</color> <!-- Bright Red Line -->
        <width>4</width>
      </LineStyle>
      <PolyStyle>
        <color>7f0000ff</color> <!-- Semi-transparent Red Ribbon -->
      </PolyStyle>
    </Style>

    <Placemark>
      <name>33-Step Validated Flight Path</name>
      <styleUrl>#dronePathStyle</styleUrl>
      <LineString>
        <extrude>1</extrude>
        <tessellate>1</tessellate>
        <altitudeMode>relativeToGround</altitudeMode>
        <coordinates>
          -122.40593173,37.78964135,15
          -122.40617000065029,37.78953217521409,15
          -122.40568383001965,37.789797954566,15
          -122.4057106786181,37.79025324346565,15
          -122.40573752744717,37.79070853065907,15
          -122.4057643765068,37.79116381614621,15
          -122.4057643765068,37.79116381614621,30
          -122.40579122579709,37.791619099927026,45
          -122.40579122579709,37.791619099927026,60
          -122.40530504324316,37.79188487699003,75
          -122.40530504324316,37.79188487699003,90
          -122.40479201133795,37.791695368844564,105
          -122.40427897960244,37.791505857565106,120
          -122.40376594803668,37.791316343151664,135
          -122.40327975535374,37.79158211378584,150
          -122.40279355865577,37.79184788270494,150
          -122.40230735794282,37.792113649908885,150
          -122.40182115321493,37.79237941539759,150
          -122.40133494447205,37.79264517917102,150
          -122.40136177550639,37.79310046507088,150
          -122.40087556077125,37.793366226984986,150
          -122.40038934202116,37.7936319871836,150
          -122.39990311925614,37.79389774566661,135
          -122.39941689247624,37.794163502434,120
          -122.3989038405344,37.793973972305956,105
          -122.3984176077023,37.79423972578601,90
          -122.39793137085543,37.794505477550196,75
          -122.39744512999377,37.79477122759851,60
          -122.39693207211111,37.794581689621246,45
          -122.39644582519767,37.79484743638182,45
          -122.3964726362262,37.79530272254711,30
          -122.39649944748508,37.79575800700558,15
          -122.39634356,37.79554125,15
        </coordinates>
      </LineString>
    </Placemark>
  </Document>
</kml>